IRIDIUM 26              
1 24903U 97043A   25210.79713137  .00000331  00000+0  10470-3 0  9990
2 24903  86.3933  92.7212 0001991  82.0376 278.1047 14.37171511462867
IRIDIUM 22              
1 24907U 97043E   25210.69252962  .00000293  00000+0  94022-4 0  9990
2 24907  86.3941  96.3428 0002069  87.4794 272.6639 14.35980471462877
DUMMY MASS 1            
1 24925U 97048A   25211.21622835  .00000411  00000+0  42772-4 0  9991
2 24925  86.3355 115.4401 0006860  14.7420 345.4004 14.87015499511766
DUMMY MASS 2            
1 24926U 97048B   25210.84902589  .00000422  00000+0  44207-4 0  9994
2 24926  86.3358 117.2252 0008121  24.6122 335.5488 14.86767099511489
IRIDIUM 29              
1 24944U 97051A   25211.18792025  .00000411  00000+0  13351-3 0  9991
2 24944  86.3980 125.8697 0002318  89.0642 271.0821 14.36496576459662
IRIDIUM 33              
1 24946U 97051C   25211.49590625  .00000306  00000+0  10065-3 0  9991
2 24946  86.3895 125.0045 0006096 308.2620  51.8028 14.34914985458969
IRIDIUM 28              
1 24948U 97051E   25210.85585390  .00000338  00000+0  10643-3 0  9992
2 24948  86.3982 123.5005 0001835  74.7028 285.4372 14.37410361459971
IRIDIUM 36              
1 24967U 97056C   25211.36935015  .00000394  00000+0  12468-3 0  9997
2 24967  86.4017 154.8730 0002015  88.8656 271.2772 14.37637463458428
